{
  "type": "FeatureCollection",
  "features": [
    {
      "type": "Feature",
      "properties": {
        "norad_id": 44709,
        "name": "BEIDOU-3 IGSO-3 (C40)",
        "group": "beidou",
        "lat": -24.253999130155204,
        "lon": 121.09367785947235,
        "alt_km": 35619.11150912494,
        "timestamp": "2025-12-18T19:29:52.809904+00:00",
        "meta_object_name": "BEIDOU-3 IGSO-3 (C40)",
        "meta_object_id": "2019-073A",
        "meta_epoch": "2025-11-20T07:11:22.740000",
        "meta_mean_motion": 1.00250097,
        "meta_eccentricity": 0.0044538,
        "meta_inclination": 55.163,
        "meta_ra_of_asc_node": 283.159,
        "meta_arg_of_pericenter": 191.5856,
        "meta_mean_anomaly": 168.2409,
        "meta_ephemeris_type": 0,
        "meta_classification_type": "U",
        "meta_norad_cat_id": 44709,
        "meta_element_set_no": 999,
        "meta_rev_at_epoch": 2236,
        "meta_bstar": 0,
        "meta_mean_motion_dot": -2.06e-06,
        "meta_mean_motion_ddot": 0,
        "tle_line1": "1 44709U 19073A   25324.29956875 -.00000206  00000+0  00000+0 0  9998",
        "tle_line2": "2 44709  55.1630 283.1590 0044538 191.5856 168.2409  1.00250097 22360"
      },
      "geometry": {
        "type": "Point",
        "coordinates": [
          121.09367785947235,
          -24.253999130155204
        ]
      }
    },
    {
      "type": "Feature",
      "properties": {
        "norad_id": 44793,
        "name": "BEIDOU-3 M22 (C44)",
        "group": "beidou",
        "lat": 53.22984880694249,
        "lon": 50.606603691055994,
        "alt_km": 21517.176525303723,
        "timestamp": "2025-12-18T19:29:52.809919+00:00",
        "meta_object_name": "BEIDOU-3 M22 (C44)",
        "meta_object_id": "2019-078A",
        "meta_epoch": "2025-12-17T14:11:57.933600",
        "meta_mean_motion": 1.86232151,
        "meta_eccentricity": 0.00059947,
        "meta_inclination": 54.1037,
        "meta_ra_of_asc_node": 306.2155,
        "meta_arg_of_pericenter": 24.2976,
        "meta_mean_anomaly": 335.7178,
        "meta_ephemeris_type": 0,
        "meta_classification_type": "U",
        "meta_norad_cat_id": 44793,
        "meta_element_set_no": 999,
        "meta_rev_at_epoch": 4126,
        "meta_bstar": 0,
        "meta_mean_motion_dot": -8.9e-07,
        "meta_mean_motion_ddot": 0,
        "tle_line1": "1 44793U 19078A   25351.59164275 -.00000089  00000+0  00000+0 0  9993",
        "tle_line2": "2 44793  54.1037 306.2155 0005994  24.2976 335.7178  1.86232151 41264"
      },
      "geometry": {
        "type": "Point",
        "coordinates": [
          50.606603691055994,
          53.22984880694249
        ]
      }
    },
    {
      "type": "Feature",
      "properties": {
        "norad_id": 44794,
        "name": "BEIDOU-3 M21 (C43)",
        "group": "beidou",
        "lat": 4.9214973677161415,
        "lon": -50.311044629417594,
        "alt_km": 21516.578264748317,
        "timestamp": "2025-12-18T19:29:52.809930+00:00",
        "meta_object_name": "BEIDOU-3 M21 (C43)",
        "meta_object_id": "2019-078B",
        "meta_epoch": "2025-12-16T15:43:55.727904",
        "meta_mean_motion": 1.86227668,
        "meta_eccentricity": 0.00041169,
        "meta_inclination": 54.078,
        "meta_ra_of_asc_node": 306.2132,
        "meta_arg_of_pericenter": 11.942,
        "meta_mean_anomaly": 348.0544,
        "meta_ephemeris_type": 0,
        "meta_classification_type": "U",
        "meta_norad_cat_id": 44794,
        "meta_element_set_no": 999,
        "meta_rev_at_epoch": 4125,
        "meta_bstar": 0,
        "meta_mean_motion_dot": -9.5e-07,
        "meta_mean_motion_ddot": 0,
        "tle_line1": "1 44794U 19078B   25350.65550611 -.00000095  00000+0  00000+0 0  9990",
        "tle_line2": "2 44794  54.0780 306.2132 0004116  11.9420 348.0544  1.86227668 41256"
      },
      "geometry": {
        "type": "Point",
        "coordinates": [
          -50.311044629417594,
          4.9214973677161415
        ]
      }
    },
    {
      "type": "Feature",
      "properties": {
        "norad_id": 44864,
        "name": "BEIDOU-3 M19 (C41)",
        "group": "beidou",
        "lat": -17.943878436978082,
        "lon": -98.81197917863531,
        "alt_km": 21524.585818931788,
        "timestamp": "2025-12-18T19:29:52.809942+00:00",
        "meta_object_name": "BEIDOU-3 M19 (C41)",
        "meta_object_id": "2019-090A",
        "meta_epoch": "2025-12-16T21:16:08.319360",
        "meta_mean_motion": 1.86231655,
        "meta_eccentricity": 0.00181701,
        "meta_inclination": 56.3969,
        "meta_ra_of_asc_node": 68.8236,
        "meta_arg_of_pericenter": 285.0658,
        "meta_mean_anomaly": 65.3992,
        "meta_ephemeris_type": 0,
        "meta_classification_type": "U",
        "meta_norad_cat_id": 44864,
        "meta_element_set_no": 999,
        "meta_rev_at_epoch": 4083,
        "meta_bstar": 0,
        "meta_mean_motion_dot": -7.7e-07,
        "meta_mean_motion_ddot": 0,
        "tle_line1": "1 44864U 19090A   25350.88620740 -.00000077  00000+0  00000+0 0  9998",
        "tle_line2": "2 44864  56.3969  68.8236 0018170 285.0658  65.3992  1.86231655 40836"
      },
      "geometry": {
        "type": "Point",
        "coordinates": [
          -98.81197917863531,
          -17.943878436978082
        ]
      }
    },
    {
      "type": "Feature",
      "properties": {
        "norad_id": 44865,
        "name": "BEIDOU-3 M20 (C42)",
        "group": "beidou",
        "lat": -50.835554137159036,
        "lon": 14.230448670956754,
        "alt_km": 21491.779681934877,
        "timestamp": "2025-12-18T19:29:52.809952+00:00",
        "meta_object_name": "BEIDOU-3 M20 (C42)",
        "meta_object_id": "2019-090B",
        "meta_epoch": "2025-12-14T14:16:43.218624",
        "meta_mean_motion": 1.86231589,
        "meta_eccentricity": 0.00151163,
        "meta_inclination": 56.3967,
        "meta_ra_of_asc_node": 68.9336,
        "meta_arg_of_pericenter": 297.6834,
        "meta_mean_anomaly": 46.2212,
        "meta_ephemeris_type": 0,
        "meta_classification_type": "U",
        "meta_norad_cat_id": 44865,
        "meta_element_set_no": 999,
        "meta_rev_at_epoch": 4077,
        "meta_bstar": 0,
        "meta_mean_motion_dot": -8.3e-07,
        "meta_mean_motion_ddot": 0,
        "tle_line1": "1 44865U 19090B   25348.59494466 -.00000083  00000+0  00000+0 0  9995",
        "tle_line2": "2 44865  56.3967  68.9336 0015116 297.6834  46.2212  1.86231589 40771"
      },
      "geometry": {
        "type": "Point",
        "coordinates": [
          14.230448670956754,
          -50.835554137159036
        ]
      }
    },
    {
      "type": "Feature",
      "properties": {
        "norad_id": 45344,
        "name": "BEIDOU-3 G2 (C60)",
        "group": "beidou",
        "lat": 2.105126906033468,
        "lon": 100.12661968069933,
        "alt_km": 35794.25920656759,
        "timestamp": "2025-12-18T19:29:52.809963+00:00",
        "meta_object_name": "BEIDOU-3 G2 (C60)",
        "meta_object_id": "2020-017A",
        "meta_epoch": "2025-12-18T15:23:14.653248",
        "meta_mean_motion": 1.00273352,
        "meta_eccentricity": 0.0002097,
        "meta_inclination": 2.5076,
        "meta_ra_of_asc_node": 44.073,
        "meta_arg_of_pericenter": 235.8561,
        "meta_mean_anomaly": 118.4037,
        "meta_ephemeris_type": 0,
        "meta_classification_type": "U",
        "meta_norad_cat_id": 45344,
        "meta_element_set_no": 999,
        "meta_rev_at_epoch": 2144,
        "meta_bstar": 0,
        "meta_mean_motion_dot": -1.18e-06,
        "meta_mean_motion_ddot": 0,
        "tle_line1": "1 45344U 20017A   25352.64114182 -.00000118  00000+0  00000+0 0  9993",
        "tle_line2": "2 45344   2.5076  44.0730 0002097 235.8561 118.4037  1.00273352 21446"
      },
      "geometry": {
        "type": "Point",
        "coordinates": [
          100.12661968069933,
          2.105126906033468
        ]
      }
    },
    {
      "type": "Feature",
      "properties": {
        "norad_id": 45807,
        "name": "BEIDOU-3 G3 (C61)",
        "group": "beidou",
        "lat": 1.8222107002145442,
        "lon": 130.7647535364204,
        "alt_km": 35797.26185141629,
        "timestamp": "2025-12-18T19:29:52.809975+00:00",
        "meta_object_name": "BEIDOU-3 G3 (C61)",
        "meta_object_id": "2020-040A",
        "meta_epoch": "2025-12-18T03:58:21.586368",
        "meta_mean_motion": 1.00271623,
        "meta_eccentricity": 0.00064116,
        "meta_inclination": 2.004,
        "meta_ra_of_asc_node": 66.6339,
        "meta_arg_of_pericenter": 309.1299,
        "meta_mean_anomaly": 241.4399,
        "meta_ephemeris_type": 0,
        "meta_classification_type": "U",
        "meta_norad_cat_id": 45807,
        "meta_element_set_no": 999,
        "meta_rev_at_epoch": 2025,
        "meta_bstar": 0,
        "meta_mean_motion_dot": -3.3e-06,
        "meta_mean_motion_ddot": 0,
        "tle_line1": "1 45807U 20040A   25352.16552762 -.00000330  00000+0  00000+0 0  9996",
        "tle_line2": "2 45807   2.0040  66.6339 0006411 309.1299 241.4399  1.00271623 20253"
      },
      "geometry": {
        "type": "Point",
        "coordinates": [
          130.7647535364204,
          1.8222107002145442
        ]
      }
    }
  ]
}